STARLINK-35355          
1 66448U 25259AC  25338.33335648 -.00089194  00000+0 -15311-2 0  9992
2 66448  43.0004  96.3849 0001364 264.8846 221.3216 15.50593600  4928
STARLINK-34720          
1 66449U 25259AD  25338.33335648 -.00083163  00000+0 -14261-2 0  9996
2 66449  43.0005  96.3797 0001441 258.3605 229.7574 15.50592590  4824
STARLINK-35334          
1 66450U 25259AE  25338.33335648 -.00054672  00000+0 -93263-3 0  9991
2 66450  43.0004  96.3744 0001461 266.4908 223.5475 15.50577827  4924
VIASAT-3 F2             
1 66454U 25261A   25338.04684933 -.00000056  00000+0  00000+0 0  9999
2 66454   5.5724 293.1352 2342139 184.2254 209.6829  2.28102609   450
ATLAS 5 CENTAUR R/B     
1 66455U 25261B   25338.04572265 -.00000056  00000+0  00000+0 0  9994
2 66455   6.1572 292.4855 2329628 184.7362 200.5822  2.28259399   454
STARLINK-35643          
1 66456U 25262A   25338.33335648 -.02141866  00000+0 -33960-1 0  9991
2 66456  42.9996 120.3167 0001215 274.0077 242.8194 15.55859726  4281
STARLINK-35466          
1 66457U 25262B   25338.33335648 -.02141309  00000+0 -33952-1 0  9995
2 66457  42.9996 120.3072 0001196 267.9123 252.7505 15.55858827  4285
STARLINK-35684          
1 66458U 25262C   25338.33335648 -.02142211  00000+0 -33968-1 0  9996
2 66458  42.9995 120.3116 0001208 265.5392 253.2068 15.55859094  4287
STARLINK-35449          
1 66459U 25262D   25338.33335648 -.02141784  00000+0 -33961-1 0  9994
2 66459  42.9993 120.3020 0001114 269.4449 253.1350 15.55859211  4286
STARLINK-35424          
1 66460U 25262E   25338.33335648 -.02143197  00000+0 -33985-1 0  9992
2 66460  42.9992 120.2972 0001128 272.6507 251.8457 15.55859779  4280
STARLINK-35132          
1 66461U 25262F   25338.33335648 -.02139832  00000+0 -33930-1 0  9994
2 66461  42.9993 120.2923 0001134 271.3487 255.0684 15.55855932  4283
STARLINK-35499          
1 66462U 25262G   25338.33335648 -.02135836  00000+0 -33865-1 0  9992
2 66462  42.9993 120.2870 0001059 266.7307 261.6081 15.55851598  4288
